[{"OBJECT_NAME":"SL-14 R/B","OBJECT_ID":"1986-006B","EPOCH":"2026-03-20T23:04:14.898720","MEAN_MOTION":14.8683087,"ECCENTRICITY":0.00753007,"INCLINATION":82.5239,"RA_OF_ASC_NODE":249.1256,"ARG_OF_PERICENTER":234.7218,"MEAN_ANOMALY":124.694,"EPHEMERIS_TYPE":0,"CLASSIFICATION_TYPE":"U","NORAD_CAT_ID":16496,"ELEMENT_SET_NO":999,"REV_AT_EPOCH":15088,"BSTAR":7.2495632e-5,"MEAN_MOTION_DOT":7.06e-6,"MEAN_MOTION_DDOT":0},{"OBJECT_NAME":"COSMOS 1743","OBJECT_ID":"1986-034A","EPOCH":"2026-03-20T22:32:06.201888","MEAN_MOTION":15.59373093,"ECCENTRICITY":0.0002657,"INCLINATION":82.5296,"RA_OF_ASC_NODE":62.0146,"ARG_OF_PERICENTER":200.4512,"MEAN_ANOMALY":159.6639,"EPHEMERIS_TYPE":0,"CLASSIFICATION_TYPE":"U","NORAD_CAT_ID":16719,"ELEMENT_SET_NO":999,"REV_AT_EPOCH":18200,"BSTAR":0.00050354023,"MEAN_MOTION_DOT":0.00039868,"MEAN_MOTION_DDOT":0},{"OBJECT_NAME":"SL-14 R/B","OBJECT_ID":"1986-046B","EPOCH":"2026-03-20T22:06:03.640608","MEAN_MOTION":14.8560058,"ECCENTRICITY":0.00228427,"INCLINATION":82.4791,"RA_OF_ASC_NODE":69.5663,"ARG_OF_PERICENTER":187.0479,"MEAN_ANOMALY":173.0419,"EPHEMERIS_TYPE":0,"CLASSIFICATION_TYPE":"U","NORAD_CAT_ID":16792,"ELEMENT_SET_NO":999,"REV_AT_EPOCH":12807,"BSTAR":4.3984626e-5,"MEAN_MOTION_DOT":4.07e-6,"MEAN_MOTION_DDOT":0},{"OBJECT_NAME":"SL-14 R/B","OBJECT_ID":"1986-055B","EPOCH":"2026-03-20T08:49:28.490304","MEAN_MOTION":14.8565152,"ECCENTRICITY":0.00174908,"INCLINATION":82.5181,"RA_OF_ASC_NODE":116.6361,"ARG_OF_PERICENTER":299.2069,"MEAN_ANOMALY":71.169,"EPHEMERIS_TYPE":0,"CLASSIFICATION_TYPE":"U","NORAD_CAT_ID":16882,"ELEMENT_SET_NO":999,"REV_AT_EPOCH":12095,"BSTAR":4.0285266e-5,"MEAN_MOTION_DOT":3.74e-6,"MEAN_MOTION_DDOT":0},{"OBJECT_NAME":"AJISAI (EGS)","OBJECT_ID":"1986-061A","EPOCH":"2026-03-20T22:51:14.482944","MEAN_MOTION":12.44515668,"ECCENTRICITY":0.0011309,"INCLINATION":50.0094,"RA_OF_ASC_NODE":58.7137,"ARG_OF_PERICENTER":316.0405,"MEAN_ANOMALY":85.4446,"EPHEMERIS_TYPE":0,"CLASSIFICATION_TYPE":"U","NORAD_CAT_ID":16908,"ELEMENT_SET_NO":999,"REV_AT_EPOCH":46940,"BSTAR":-0.00012483208,"MEAN_MOTION_DOT":-1.15e-6,"MEAN_MOTION_DDOT":0},{"OBJECT_NAME":"SL-14 R/B","OBJECT_ID":"1987-024B","EPOCH":"2026-03-20T09:52:36.890976","MEAN_MOTION":14.86141678,"ECCENTRICITY":0.00171341,"INCLINATION":82.5245,"RA_OF_ASC_NODE":82.683,"ARG_OF_PERICENTER":221.5933,"MEAN_ANOMALY":138.3981,"EPHEMERIS_TYPE":0,"CLASSIFICATION_TYPE":"U","NORAD_CAT_ID":17567,"ELEMENT_SET_NO":999,"REV_AT_EPOCH":8972,"BSTAR":4.3509339e-5,"MEAN_MOTION_DOT":4.06e-6,"MEAN_MOTION_DDOT":0},{"OBJECT_NAME":"COSMOS 1833","OBJECT_ID":"1987-027A","EPOCH":"2026-03-20T21:41:00.158784","MEAN_MOTION":14.13051086,"ECCENTRICITY":0.00236851,"INCLINATION":70.9193,"RA_OF_ASC_NODE":302.4504,"ARG_OF_PERICENTER":198.3571,"MEAN_ANOMALY":161.6698,"EPHEMERIS_TYPE":0,"CLASSIFICATION_TYPE":"U","NORAD_CAT_ID":17589,"ELEMENT_SET_NO":999,"REV_AT_EPOCH":1190,"BSTAR":-0.00010718452,"MEAN_MOTION_DOT":-2.49e-6,"MEAN_MOTION_DDOT":0},{"OBJECT_NAME":"SL-16 R/B","OBJECT_ID":"1987-027B","EPOCH":"2026-03-20T21:57:54.170784","MEAN_MOTION":14.17166532,"ECCENTRICITY":0.00030086,"INCLINATION":70.9993,"RA_OF_ASC_NODE":252.8376,"ARG_OF_PERICENTER":116.694,"MEAN_ANOMALY":243.4492,"EPHEMERIS_TYPE":0,"CLASSIFICATION_TYPE":"U","NORAD_CAT_ID":17590,"ELEMENT_SET_NO":999,"REV_AT_EPOCH":1693,"BSTAR":-4.8190082e-5,"MEAN_MOTION_DOT":-1.45e-6,"MEAN_MOTION_DDOT":0},{"OBJECT_NAME":"SL-14 R/B","OBJECT_ID":"1987-038B","EPOCH":"2026-03-20T22:49:21.252288","MEAN_MOTION":14.85378608,"ECCENTRICITY":0.00204878,"INCLINATION":82.4984,"RA_OF_ASC_NODE":286.197,"ARG_OF_PERICENTER":124.9046,"MEAN_ANOMALY":235.4099,"EPHEMERIS_TYPE":0,"CLASSIFICATION_TYPE":"U","NORAD_CAT_ID":17912,"ELEMENT_SET_NO":999,"REV_AT_EPOCH":8090,"BSTAR":4.1001685e-5,"MEAN_MOTION_DOT":3.79e-6,"MEAN_MOTION_DDOT":0},{"OBJECT_NAME":"COSMOS 1844","OBJECT_ID":"1987-041A","EPOCH":"2026-03-20T22:14:29.906592","MEAN_MOTION":14.14551697,"ECCENTRICITY":0.00305859,"INCLINATION":70.901,"RA_OF_ASC_NODE":10.4741,"ARG_OF_PERICENTER":1.4857,"MEAN_ANOMALY":358.6349,"EPHEMERIS_TYPE":0,"CLASSIFICATION_TYPE":"U","NORAD_CAT_ID":17973,"ELEMENT_SET_NO":999,"REV_AT_EPOCH":517,"BSTAR":8.4151238e-5,"MEAN_MOTION_DOT":1.14e-6,"MEAN_MOTION_DDOT":0},{"OBJECT_NAME":"SL-14 R/B","OBJECT_ID":"1987-055B","EPOCH":"2026-03-20T18:59:13.694208","MEAN_MOTION":14.85640629,"ECCENTRICITY":0.00201408,"INCLINATION":82.5023,"RA_OF_ASC_NODE":338.5711,"ARG_OF_PERICENTER":341.1832,"MEAN_ANOMALY":18.8637,"EPHEMERIS_TYPE":0,"CLASSIFICATION_TYPE":"U","NORAD_CAT_ID":18153,"ELEMENT_SET_NO":999,"REV_AT_EPOCH":7158,"BSTAR":4.6907359e-5,"MEAN_MOTION_DOT":4.32e-6,"MEAN_MOTION_DDOT":0},{"OBJECT_NAME":"COSMOS 1867","OBJECT_ID":"1987-060A","EPOCH":"2026-03-20T21:33:55.456992","MEAN_MOTION":14.31504639,"ECCENTRICITY":0.00146585,"INCLINATION":65.0093,"RA_OF_ASC_NODE":275.314,"ARG_OF_PERICENTER":279.3261,"MEAN_ANOMALY":80.6166,"EPHEMERIS_TYPE":0,"CLASSIFICATION_TYPE":"U","NORAD_CAT_ID":18187,"ELEMENT_SET_NO":999,"REV_AT_EPOCH":2154,"BSTAR":2.4702463e-5,"MEAN_MOTION_DOT":-3.4e-7,"MEAN_MOTION_DDOT":0},{"OBJECT_NAME":"SL-14 R/B","OBJECT_ID":"1988-001B","EPOCH":"2026-03-20T18:53:37.628448","MEAN_MOTION":14.85540147,"ECCENTRICITY":0.0017626,"INCLINATION":82.5161,"RA_OF_ASC_NODE":184.9255,"ARG_OF_PERICENTER":197.1683,"MEAN_ANOMALY":162.894,"EPHEMERIS_TYPE":0,"CLASSIFICATION_TYPE":"U","NORAD_CAT_ID":18749,"ELEMENT_SET_NO":999,"REV_AT_EPOCH":4367,"BSTAR":5.4132e-5,"MEAN_MOTION_DOT":4.93e-6,"MEAN_MOTION_DDOT":0},{"OBJECT_NAME":"COSMOS 1933","OBJECT_ID":"1988-020A","EPOCH":"2026-03-20T22:19:12.373248","MEAN_MOTION":15.18081803,"ECCENTRICITY":0.00047868,"INCLINATION":82.5108,"RA_OF_ASC_NODE":239.7874,"ARG_OF_PERICENTER":146.1742,"MEAN_ANOMALY":213.9798,"EPHEMERIS_TYPE":0,"CLASSIFICATION_TYPE":"U","NORAD_CAT_ID":18958,"ELEMENT_SET_NO":999,"REV_AT_EPOCH":5193,"BSTAR":0.00021303924,"MEAN_MOTION_DOT":4.371e-5,"MEAN_MOTION_DDOT":0},{"OBJECT_NAME":"SL-3 R/B","OBJECT_ID":"1988-032B","EPOCH":"2026-03-20T22:10:43.012416","MEAN_MOTION":15.20026104,"ECCENTRICITY":0.00254477,"INCLINATION":97.5208,"RA_OF_ASC_NODE":63.137,"ARG_OF_PERICENTER":190.7517,"MEAN_ANOMALY":169.3177,"EPHEMERIS_TYPE":0,"CLASSIFICATION_TYPE":"U","NORAD_CAT_ID":19046,"ELEMENT_SET_NO":999,"REV_AT_EPOCH":5381,"BSTAR":0.00020852105,"MEAN_MOTION_DOT":4.461e-5,"MEAN_MOTION_DDOT":0},{"OBJECT_NAME":"SL-16 R/B","OBJECT_ID":"1988-039B","EPOCH":"2026-03-20T23:20:21.651648","MEAN_MOTION":14.19617745,"ECCENTRICITY":0.00233119,"INCLINATION":71.0152,"RA_OF_ASC_NODE":44.6882,"ARG_OF_PERICENTER":318.0355,"MEAN_ANOMALY":41.8983,"EPHEMERIS_TYPE":0,"CLASSIFICATION_TYPE":"U","NORAD_CAT_ID":19120,"ELEMENT_SET_NO":999,"REV_AT_EPOCH":95998,"BSTAR":-4.097113e-5,"MEAN_MOTION_DOT":-1.35e-6,"MEAN_MOTION_DDOT":0},{"OBJECT_NAME":"COSMOS 1953","OBJECT_ID":"1988-050A","EPOCH":"2026-03-20T14:57:08.811360","MEAN_MOTION":15.28691559,"ECCENTRICITY":0.0012661,"INCLINATION":82.5087,"RA_OF_ASC_NODE":147.2508,"ARG_OF_PERICENTER":88.3819,"MEAN_ANOMALY":271.8871,"EPHEMERIS_TYPE":0,"CLASSIFICATION_TYPE":"U","NORAD_CAT_ID":19210,"ELEMENT_SET_NO":999,"REV_AT_EPOCH":3945,"BSTAR":0.00023512,"MEAN_MOTION_DOT":6.606e-5,"MEAN_MOTION_DDOT":0}]
